 PEER Ground Motion Database, Time Series Search Report -- NGA-West2 -- 2022-01-12,,,,,,,,,,,,,,,,,,,,,,,,,,,,,
,,,,,,,,,,,,,,,,,,,,,,,,,,,,,,
,,,,,,,,,,,,,,,,,,,,,,,,,,,,,,
 -- Summary of PEER Ground Motion Database Search Criteria --,,,,,,,,,,,,,,,,,,,,,,,,,,,,,,
Magnitude Min:,6.7,,,,,,,,,,,,,,,,,,,,,,,,,,,,,
Magnitude Max:,8,,,,,,,,,,,,,,,,,,,,,,,,,,,,,
Rrup Min (km):,10,,,,,,,,,,,,,,,,,,,,,,,,,,,,,
Rrup Max (km):,30,,,,,,,,,,,,,,,,,,,,,,,,,,,,,
Rjb Min (km):,10,,,,,,,,,,,,,,,,,,,,,,,,,,,,,
Rjb Max (km):,30,,,,,,,,,,,,,,,,,,,,,,,,,,,,,
Vs30 Min (m/sec):,360,,,,,,,,,,,,,,,,,,,,,,,,,,,,,
Vs30 Max (m/sec):,760,,,,,,,,,,,,,,,,,,,,,,,,,,,,,
D9-95 Min (sec):,15,,,,,,,,,,,,,,,,,,,,,,,,,,,,,
D9-95 Max (sec):,60,,,,,,,,,,,,,,,,,,,,,,,,,,,,,
Scale Factor Min:,-1.00E-06,,,,,,,,,,,,,,,,,,,,,,,,,,,,,
Scale Factor Max:,99999,,,,,,,,,,,,,,,,,,,,,,,,,,,,,
Period Array:,0.1,1,3,,,,,,,,,,,,,,,,,,,,,,,,,,,
Weight Array:,1,1,1,,,,,,,,,,,,,,,,,,,,,,,,,,,
Record Sequence Number:, ,,,,,,,,,,,,,,,,,,,,,,,,,,,,,
Earthquake Name:, ,,,,,,,,,,,,,,,,,,,,,,,,,,,,,
Station Name:, ,,,,,,,,,,,,,,,,,,,,,,,,,,,,,
User-Defined Maximum Number of Records:, ,,,,,,,,,,,,,,,,,,,,,,,,,,,,,
Pulse:,1,,,,,,,,,,,,,,,,,,,,,,,,,,,,,
Damping Ratio:,0.05,,,,,,,,,,,,,,,,,,,,,,,,,,,,,
Scaling Method:, Minimize MSE,,,,,,,,,,,,,,,,,,,,,,,,,,,,,
Suite Average:, Arithmetic,,,,,,,,,,,,,,,,,,,,,,,,,,,,,
Single-Period-Scaling Period (sec):, ,,,,,,,,,,,,,,,,,,,,,,,,,,,,,
Component:, SRSS,,,,,,,,,,,,,,,,,,,,,,,,,,,,,
Fault Type:, Strike Slip (SS),,,,,,,,,,,,,,,,,,,,,,,,,,,,,
,,,,,,,,,,,,,,,,,,,,,,,,,,,,,,
,,,,,,,,,,,,,,,,,,,,,,,,,,,,,,
 -- Summary of Metadata of Selected Records --,,,,,,,,,,,,,,,,,,,,,,,,,,,,,,
Result ID, Spectral Ordinate, Record Sequence Number, Mean Squared Error, Scale Factor, Tp-Pulse Period (sec), 5-75% Duration (sec), 5-95% Duration (sec), Arias Intensity (m/sec), Earthquake Name, Year, Station Name, Magnitude, Mechanism, Rjb (km), Rrup (km), Vs30 (m/sec), Lowest Useable Frequency (Hz), Initial-search Scale Factor, Horizontal-1 Acc. Filename, Horizontal-2 Acc. Filename, Vertical Acc. Filename,,,,,,,,,
1, SRSS,864,0.2034,1.4457, -,21.7,27.1,2.3," ""Landers""",1992," ""Joshua Tree""",7.28, strike slip,11.03,11.03,379.32,0.07,1.5578, RSN864_LANDERS_JOS000.AT2, RSN864_LANDERS_JOS090.AT2 , RSN864_LANDERS_JOS-UP.AT2  ,,,,,,,,,
2, SRSS,881,0.2238,2.0149, -,19.1,31.9,1.2," ""Landers""",1992," ""Morongo Valley Fire Station""",7.28, strike slip,17.36,17.36,396.41,0.25,2.1712, RSN881_LANDERS_MVH045.AT2, RSN881_LANDERS_MVH135.AT2 , RSN881_LANDERS_MVH-UP.AT2  ,,,,,,,,,
3, SRSS,1614,0.1373,4.0546, -,9.7,15.5,0.2," ""Duzce_ Turkey""",1999," ""Lamont 1061""",7.14, strike slip,11.46,11.46,481,0.0875,4.369, RSN1614_DUZCE_1061-N.AT2, RSN1614_DUZCE_1061-E.AT2 , RSN1614_DUZCE_1061-V.AT2  ,,,,,,,,,
4, SRSS,1616,0.2028,11.8094, -,14.6,20.5,0," ""Duzce_ Turkey""",1999," ""Lamont 362""",7.14, strike slip,23.41,23.41,517,0.075,12.7253, RSN1616_DUZCE_362-N.AT2, RSN1616_DUZCE_362-E.AT2 , RSN1616_DUZCE_362-V.AT2  ,,,,,,,,,
5, SRSS,1633,0.0496,0.8316, -,10.8,29.1,7.5," ""Manjil_ Iran""",1990," ""Abbar""",7.37, strike slip,12.55,12.55,723.95,0.13,0.8961, RSN1633_MANJIL_ABBAR--L.AT2, RSN1633_MANJIL_ABBAR--T.AT2 , RSN1633_MANJIL_ABBAR--V.AT2  ,,,,,,,,,
6, SRSS,3753,0.2349,2.2173, -,22.7,29.6,1.2," ""Landers""",1992," ""Fun Valley""",7.28, strike slip,25.02,25.02,388.63,0.0625,2.3893, RSN3753_LANDERS_FVR045.AT2, RSN3753_LANDERS_FVR135.AT2 , RSN3753_LANDERS_FVR-UP.AT2  ,,,,,,,,,
7, SRSS,3757,0.0742,2.885, -,25,35.9,0.7," ""Landers""",1992," ""North Palm Springs Fire Sta #36""",7.28, strike slip,26.95,26.95,367.84,0.1125,3.1087, RSN3757_LANDERS_NPF090.AT2, RSN3757_LANDERS_NPF180.AT2 , RSN3757_LANDERS_NPF-UP.AT2  ,,,,,,,,,
8, SRSS,3759,0.0924,3.9499, -,23.2,33.4,0.6," ""Landers""",1992," ""Whitewater Trout Farm""",7.28, strike slip,27.05,27.05,425.02,0.375,4.2562, RSN3759_LANDERS_WWT180.AT2, RSN3759_LANDERS_WWT270.AT2 , RSN3759_LANDERS_WWT-UP.AT2  ,,,,,,,,,
9, SRSS,6915,0.4334,1.336, -,8.5,15.7,4.1," ""Darfield_ New Zealand""",2010," ""Heathcote Valley Primary School """,7, strike slip,24.36,24.47,422,0.075,1.4397, RSN6915_DARFIELD_HVSCS26W.AT2, RSN6915_DARFIELD_HVSCS64E.AT2 , RSN6915_DARFIELD_HVSCUP.AT2  ,,,,,,,,,
10, SRSS,6971,0.131,2.1737, -,16.1,22.7,1," ""Darfield_ New Zealand""",2010," ""SPFS""",7, strike slip,29.86,29.86,389.54,0.0375,2.3422, RSN6971_DARFIELD_SPFSN17E.AT2, RSN6971_DARFIELD_SPFSN73W.AT2 , RSN6971_DARFIELD_SPFSUP.AT2  ,,,,,,,,,
,,,,,,,,,,,,,,,,,,,,,,,,,,,,,,
 These records were obtained from the NGA-West2 On-Line Ground-Motion Database Tool,,,,,,,,,,,,,,,,,,,,,,,,,,,,,,
 These records are UNSCALED, AS RECORDED,,,,,,,,,,,,,,,,,,,,,,,,,,,,,
 Filename Extension: ,,,,,,,,,,,,,,,,,,,,,,,,,,,,,,
   ,AT2 = Acceleration,,,,,,,,,,,,,,,,,,,,,,,,,,,,,
   ,VT2 = Velocity,,,,,,,,,,,,,,,,,,,,,,,,,,,,,
   ,DT2 = Displacement,,,,,,,,,,,,,,,,,,,,,,,,,,,,,
 The users of the NGA-West2 databases, flatfiles, models and reports are requested to acknowledge the Pacific Earthquake Engineering Research Center (PEER) in their work and publications.,,,,,,,,,,,,,,,,,,,,,,,,,,,,
,,,,,,,,,,,,,,,,,,,,,,,,,,,,,,
 -- Scaled Spectra used in Search & Scaling --,,,,,,,,,,,,,,,,,,,,,,,,,,,,,,
Period (sec),Target pSa (g),Arithmetic Mean pSa (g),Arithmetic Mean + Sigma pSa (g),Arithmetic Mean - Sigma pSa (g),RSN-864 SRSS pSa (g),RSN-881 SRSS pSa (g),RSN-1614 SRSS pSa (g),RSN-1616 SRSS pSa (g),RSN-1633 SRSS pSa (g),RSN-3753 SRSS pSa (g),RSN-3757 SRSS pSa (g),RSN-3759 SRSS pSa (g),RSN-6915 SRSS pSa (g),RSN-6971 SRSS pSa (g),,,,,,,,,,,,,,,,
0.01,0.74433468,0.66003232,0.85663052,0.50855375,0.57269332,0.55830729,0.68217224,0.62437453,0.60444634,0.66346018,0.56645952,0.69087028,1.14525228,0.49228726,,,,,,,,,,,,,,,,
0.02,0.85826936,0.66638095,0.86959463,0.51065582,0.57683084,0.56455499,0.67662318,0.62427657,0.60729462,0.66844938,0.57514831,0.71074627,1.16686673,0.49301856,,,,,,,,,,,,,,,,
0.022,0.88105629,0.67609415,0.89554959,0.51041652,0.5774543,0.56760778,0.67742826,0.6265488,0.63810857,0.6679191,0.57725237,0.71602039,1.21645761,0.49614436,,,,,,,,,,,,,,,,
0.025,0.9152367,0.68435838,0.90475885,0.51764776,0.57559951,0.56657525,0.68001715,0.62521013,0.70234839,0.66920173,0.57980306,0.73015308,1.21955928,0.49511624,,,,,,,,,,,,,,,,
0.029,0.96081057,0.68830178,0.91135944,0.51983807,0.57462644,0.56453398,0.68376633,0.63531802,0.7251861,0.67276248,0.57907631,0.72464523,1.22717496,0.49592791,,,,,,,,,,,,,,,,
0.03,0.97220404,0.69473845,0.92037591,0.52441781,0.5751431,0.56840936,0.68328509,0.63317061,0.75085573,0.67159479,0.58279619,0.75126243,1.23279963,0.4980676,,,,,,,,,,,,,,,,
0.032,0.99499097,0.70042991,0.92869693,0.52826927,0.57531325,0.57153204,0.68037665,0.63690335,0.74488469,0.67521523,0.59614421,0.76952969,1.24660906,0.50779089,,,,,,,,,,,,,,,,
0.035,1.02917138,0.70461481,0.95807572,0.51820751,0.57638931,0.58020256,0.69356384,0.64842055,0.66731443,0.67552908,0.58704395,0.7869888,1.31653795,0.51415767,,,,,,,,,,,,,,,,
0.036,1.04056484,0.70809216,0.96599719,0.51904344,0.57721966,0.59127052,0.69801029,0.64620022,0.68667625,0.67059353,0.58432534,0.78525389,1.33021571,0.51115617,,,,,,,,,,,,,,,,
0.04,1.08613872,0.71251534,0.96604943,0.5255198,0.57426505,0.6059241,0.70466273,0.64217613,0.67057797,0.67880112,0.59367154,0.82998085,1.3151177,0.50997619,,,,,,,,,,,,,,,,
0.042,1.10892565,0.72760682,1.01074842,0.52378186,0.57743442,0.61606203,0.70864229,0.64731995,0.69136368,0.68009868,0.59359509,0.86829265,1.38984615,0.50341325,,,,,,,,,,,,,,,,
0.044,1.13171259,0.73431874,1.01724195,0.53008433,0.5808585,0.61944425,0.71393869,0.66792,0.71763996,0.68938013,0.57342801,0.87008307,1.39509645,0.51539837,,,,,,,,,,,,,,,,
0.045,1.14310606,0.73452424,1.00818678,0.53514475,0.58091007,0.62611611,0.71717416,0.68883513,0.71756045,0.69453411,0.56355823,0.8695609,1.37166795,0.51532533,,,,,,,,,,,,,,,,
0.046,1.15449952,0.74502381,1.02616483,0.54090772,0.58030281,0.62924384,0.7143948,0.70105337,0.75503436,0.69977153,0.58650022,0.8708454,1.39981531,0.51327645,,,,,,,,,,,,,,,,
0.048,1.17728646,0.7587378,1.06333351,0.54139462,0.57831844,0.63089609,0.69521975,0.70369041,0.81541157,0.71078188,0.62887527,0.83811555,1.47331737,0.51275164,,,,,,,,,,,,,,,,
0.05,1.20007339,0.77318332,1.09716148,0.54487189,0.57750985,0.60809781,0.70983524,0.7022863,0.87985632,0.7140751,0.66320336,0.83000994,1.52452896,0.52243036,,,,,,,,,,,,,,,,
0.055,1.25704073,0.81707808,1.15785752,0.57659649,0.58064689,0.58938822,0.78507697,0.74571359,1.14837463,0.71563204,0.69580705,0.87225387,1.50787358,0.53001392,,,,,,,,,,,,,,,,
0.06,1.31400807,0.82364626,1.16923372,0.58020322,0.58541229,0.6070609,0.82410318,0.6921177,1.1454094,0.71501944,0.72025332,0.89988828,1.52359601,0.52360209,,,,,,,,,,,,,,,,
0.065,1.37097541,0.88041855,1.32405207,0.58542775,0.58028601,0.62273153,0.85091002,0.68862038,1.36949617,0.70742096,0.775319,0.93250615,1.72175195,0.55514331,,,,,,,,,,,,,,,,
0.067,1.39376235,0.90208734,1.37718003,0.59088975,0.57971327,0.61974011,0.84423975,0.71494392,1.42423566,0.71331816,0.80290559,0.95573695,1.79774389,0.56829609,,,,,,,,,,,,,,,,
0.07,1.42794275,0.93364028,1.42958668,0.6097456,0.5902332,0.61795982,0.84313043,0.73806539,1.37458389,0.73144328,0.85850537,1.1202239,1.888954,0.57330357,,,,,,,,,,,,,,,,
0.075,1.48491009,0.9713811,1.4909372,0.63287792,0.58842477,0.59735705,0.82641942,0.806599,1.45969525,0.76955167,0.83741263,1.29998197,1.90479371,0.6235755,,,,,,,,,,,,,,,,
0.08,1.54187743,0.99899384,1.53987948,0.64809532,0.58269275,0.58202847,0.85963107,0.82695614,1.63220098,0.78491426,0.88981969,1.28330215,1.89926861,0.64912425,,,,,,,,,,,,,,,,
0.085,1.576,1.07294386,1.69630505,0.67865654,0.59405659,0.60109883,0.87808397,0.77930012,1.94565853,0.84359552,1.04448128,1.39262595,1.95557311,0.69496466,,,,,,,,,,,,,,,,
0.09,1.576,1.10210118,1.69816589,0.71525816,0.593075,0.59713489,0.91927482,0.77589988,1.84606059,0.87505687,1.17458677,1.51325837,1.95515525,0.77150935,,,,,,,,,,,,,,,,
0.095,1.576,1.12881724,1.70185155,0.74873062,0.5856065,0.63456966,0.8636381,0.84604349,1.52462191,0.95557238,1.29261349,1.78083593,1.98103844,0.82363254,,,,,,,,,,,,,,,,
0.1,1.576,1.13503716,1.73391121,0.74300768,0.60408006,0.61837215,0.96125193,0.81280155,1.3951029,0.95997541,1.20770807,1.72139006,2.19172814,0.8779613,,,,,,,,,,,,,,,,
0.11,1.576,1.26351979,2.07884217,0.76796703,0.68259033,0.6836598,1.02751909,0.86278123,1.61387006,1.08165812,1.08853439,1.9392731,2.77325637,0.88205537,,,,,,,,,,,,,,,,
0.12,1.576,1.26465911,2.00846431,0.79631122,0.65456847,0.75452896,1.13146108,0.85584069,1.95645719,0.99134845,1.05759532,2.06740338,2.34838719,0.82900035,,,,,,,,,,,,,,,,
0.13,1.576,1.38538258,2.4364242,0.78774661,0.67031775,0.76780382,1.26639196,0.78389181,1.9452849,1.0802974,1.14113136,1.90247419,3.36289743,0.93333519,,,,,,,,,,,,,,,,
0.133,1.576,1.41104546,2.53484999,0.78547027,0.68726274,0.76821358,1.22321307,0.80024238,2.03587558,1.08789638,1.15783431,1.82426235,3.54859127,0.97706297,,,,,,,,,,,,,,,,
0.14,1.576,1.44272989,2.47532901,0.84088601,0.70818995,0.74554138,1.30797362,0.87883133,2.01426538,1.19423342,1.29044739,1.8337558,3.4331344,1.02092624,,,,,,,,,,,,,,,,
0.15,1.576,1.40569597,2.24613445,0.87972523,0.66597536,0.76616472,1.39914957,0.86007574,2.08800153,1.31157437,1.32207827,1.68395168,2.94644113,1.0135473,,,,,,,,,,,,,,,,
0.16,1.576,1.47883432,2.26563491,0.96527068,0.8189646,0.80985885,1.72959657,0.89589311,2.07512636,1.39800293,1.39214785,1.62657709,2.94705183,1.09512402,,,,,,,,,,,,,,,,
0.17,1.576,1.51395549,2.27169624,1.00896466,0.86818821,0.83069336,1.82349624,0.88751927,1.9781331,1.53941212,1.47747014,1.712899,2.91957123,1.10217224,,,,,,,,,,,,,,,,
0.18,1.576,1.57598677,2.37528377,1.04565793,0.95709428,0.95210634,1.72721945,0.93484674,2.06718256,1.69257786,1.48544601,1.63972325,3.16263585,1.14103538,,,,,,,,,,,,,,,,
0.19,1.576,1.62825693,2.60692458,1.01699169,1.02570038,0.98075982,1.72510528,1.01642246,1.87892731,1.89964958,1.39870685,1.56229126,3.68784663,1.10715975,,,,,,,,,,,,,,,,
0.2,1.576,1.66284752,2.55962956,1.08025861,0.92105257,0.97063038,2.0722713,1.13278318,1.81894811,2.10379023,1.32532694,1.79302343,3.39381414,1.09683491,,,,,,,,,,,,,,,,
0.22,1.576,1.70160373,2.41184953,1.20051239,1.09812394,0.99504211,2.51100484,1.33789489,1.53942371,1.7409199,1.45123084,2.06997225,2.93254163,1.33988314,,,,,,,,,,,,,,,,
0.24,1.576,1.67503655,2.28273042,1.22911905,1.29324396,0.96109851,2.28284029,1.16194398,1.32244805,1.62044934,1.60861159,1.91759402,2.76571706,1.81641871,,,,,,,,,,,,,,,,
0.25,1.576,1.68081981,2.29931571,1.22869392,1.31287401,1.01294223,2.35834777,1.06272265,1.37521639,1.64201824,1.5086952,2.00537,2.73334106,1.79667058,,,,,,,,,,,,,,,,
0.26,1.576,1.65573311,2.18390329,1.25529923,1.25876889,1.07738053,2.23408116,1.183953,1.42576478,1.75100794,1.35136775,2.15934113,2.45832486,1.65734103,,,,,,,,,,,,,,,,
0.28,1.576,1.62371325,2.2068542,1.19466193,1.22425029,1.05308292,2.1439352,1.24967418,1.4368706,2.32646083,1.17408638,1.91254203,2.43364493,1.28258509,,,,,,,,,,,,,,,,
0.29,1.576,1.71764231,2.46498132,1.19688335,1.30200579,1.12606567,2.50079699,1.20677889,1.48383374,2.72192117,1.16221609,1.76660115,2.64870954,1.25749405,,,,,,,,,,,,,,,,
0.3,1.576,1.76663146,2.66585208,1.17072764,1.41483199,1.1149182,2.86274181,1.1455575,1.48926246,2.97590247,1.1593101,1.70971348,2.6724369,1.12163968,,,,,,,,,,,,,,,,
0.32,1.576,1.8475759,2.91900814,1.16941665,1.55897689,1.05152737,3.36363244,1.02599253,1.36241617,2.66385313,1.27127888,1.66253709,3.21842056,1.29712393,,,,,,,,,,,,,,,,
0.34,1.576,1.77588854,2.77778394,1.13535832,1.29515878,1.02443918,3.12746963,0.993842,1.61070023,2.26770952,1.23013268,1.33258975,3.28574021,1.59110342,,,,,,,,,,,,,,,,
0.35,1.576,1.72595593,2.67406221,1.11400695,1.18797791,1.07209156,2.84950562,1.00450598,1.60653953,2.15600893,1.23099022,1.34402325,3.32614947,1.48176686,,,,,,,,,,,,,,,,
0.36,1.576,1.62514742,2.47721448,1.06615885,1.13425349,1.16997726,2.51700531,0.94936363,1.50053231,1.97027471,1.18816293,1.31628335,3.19723737,1.30838384,,,,,,,,,,,,,,,,
0.38,1.576,1.37655397,1.89506292,0.99991446,1.10338825,1.2783531,1.89251593,0.86095201,1.26432428,1.6110211,1.09074755,1.08365844,2.3996503,1.18092871,,,,,,,,,,,,,,,,
0.4,1.576,1.26579442,1.51741818,1.05589582,1.27008528,1.32930467,1.4934183,0.93088779,1.22708708,1.35609766,1.13687266,1.03986909,1.7708031,1.10351859,,,,,,,,,,,,,,,,
0.42,1.55714286,1.21503114,1.37032766,1.07733406,1.30845086,1.36905515,1.33988825,1.05753008,1.08610693,1.30399909,0.99074281,1.09877135,1.43689293,1.15887391,,,,,,,,,,,,,,,,
0.44,1.48636364,1.19527462,1.36656255,1.04545629,1.20723355,1.37392516,1.25727361,1.1752105,1.01611695,1.46433487,0.92514011,1.0136156,1.23646155,1.28343429,,,,,,,,,,,,,,,,
0.45,1.45333333,1.1946661,1.37802903,1.03570176,1.18180368,1.41388865,1.21704132,1.18079489,1.00769916,1.47557156,0.96138484,0.95392463,1.24426136,1.31029091,,,,,,,,,,,,,,,,
0.46,1.42173913,1.20466935,1.3798062,1.05176237,1.23571584,1.45044333,1.2570233,1.15962572,0.99097712,1.41089347,0.99334457,0.98013308,1.2327537,1.33578336,,,,,,,,,,,,,,,,
0.48,1.3625,1.20419303,1.39191548,1.04178801,1.2530395,1.54963171,1.27931339,1.1330754,0.94809057,1.28974902,1.01387544,1.0261233,1.17157226,1.37745973,,,,,,,,,,,,,,,,
0.5,1.308,1.21662455,1.4677744,1.00844878,1.1600149,1.74473962,1.21209096,1.12043789,0.94927273,1.32028692,0.93685994,1.04711108,1.26232779,1.4131037,,,,,,,,,,,,,,,,
0.55,1.18909091,1.2497872,1.71664628,0.90989511,0.9551058,2.1796404,0.80622248,1.0616119,0.80057254,1.41794984,1.03033935,1.51910845,1.28229576,1.44502551,,,,,,,,,,,,,,,,
0.6,1.09,1.23189686,1.81294071,0.83707639,1.18105572,2.36941917,0.57702378,1.12906722,0.77009695,1.62865543,1.01547149,1.442896,0.97163777,1.23364508,,,,,,,,,,,,,,,,
0.65,1.00615385,1.24140393,1.80737578,0.8526637,1.49188482,2.03383208,0.607013,1.28671806,0.76435145,1.87856818,0.88751184,1.33068833,0.71212565,1.42134588,,,,,,,,,,,,,,,,
0.667,0.98050975,1.2406076,1.83106221,0.8405543,1.57483844,1.88375233,0.64466203,1.29482601,0.74923062,2.02551846,0.85065485,1.32617219,0.61472294,1.4416981,,,,,,,,,,,,,,,,
0.7,0.93428571,1.21708452,1.85474072,0.79865327,1.73529711,1.6538035,0.62475005,1.30426697,0.7695247,2.15784741,0.761773,1.34069643,0.51360961,1.30927643,,,,,,,,,,,,,,,,
0.75,0.872,1.10072238,1.63580908,0.74066697,1.59680724,1.33056915,0.58448489,1.26366626,0.74017662,1.77156921,0.65706349,1.24232483,0.44114571,1.37941639,,,,,,,,,,,,,,,,
0.8,0.8175,0.99730117,1.40941747,0.70568845,1.37855498,0.91794206,0.66366245,1.34590501,0.67538848,1.37464177,0.6792736,1.15305143,0.4384697,1.34612223,,,,,,,,,,,,,,,,
0.85,0.76941176,0.95230522,1.34450083,0.67451445,1.33032078,0.80036372,0.74989684,1.37894666,0.58561718,1.20899862,0.7611539,0.9858531,0.39454623,1.32735521,,,,,,,,,,,,,,,,
0.9,0.72666667,0.89236248,1.24012232,0.64212278,1.2387818,0.81760056,0.79563714,1.40257314,0.52750906,1.05064376,0.74992815,0.83820041,0.40065589,1.10209491,,,,,,,,,,,,,,,,
0.95,0.68842105,0.82249493,1.13364017,0.59674836,1.09739571,0.76522504,0.71866824,1.3687366,0.53738401,0.80876753,0.83005597,0.78736241,0.36415491,0.94719888,,,,,,,,,,,,,,,,
1,0.654,0.77325758,1.06152248,0.56327332,0.96141498,0.6456237,0.68164176,1.27088014,0.53796365,0.71034678,0.77526651,0.73167098,0.37480699,1.04296031,,,,,,,,,,,,,,,,
1.1,0.59454545,0.69139811,1.0059956,0.47518235,1.13832545,0.61050172,0.584497,1.03873685,0.43922792,0.51968525,0.74566086,0.5941052,0.29093211,0.95230875,,,,,,,,,,,,,,,,
1.2,0.545,0.60161295,0.93557703,0.38686086,1.13472582,0.64528425,0.52822414,0.89250391,0.32069908,0.41571493,0.72194662,0.38812747,0.23092182,0.73798144,,,,,,,,,,,,,,,,
1.3,0.50307692,0.56063836,0.86659296,0.36270243,0.94775049,0.64321598,0.52790325,0.90627815,0.31559203,0.36701957,0.68682794,0.33014519,0.19222679,0.68942419,,,,,,,,,,,,,,,,
1.4,0.46714286,0.52856609,0.81807817,0.34151029,0.70802873,0.72187786,0.51979146,0.8871554,0.388176,0.29196921,0.62802601,0.28503445,0.13660812,0.71899366,,,,,,,,,,,,,,,,
1.5,0.436,0.5178439,0.81502791,0.32902223,0.62019874,0.79112736,0.43922191,0.88433335,0.40879756,0.31417373,0.66830239,0.27188801,0.11012773,0.67026819,,,,,,,,,,,,,,,,
1.6,0.40875,0.49766931,0.78422354,0.3158216,0.59172532,0.84193113,0.44028413,0.88123093,0.42292097,0.31244686,0.52206942,0.28924145,0.11478076,0.56006209,,,,,,,,,,,,,,,,
1.7,0.38470588,0.44673327,0.6813924,0.29288648,0.5285216,0.76754377,0.33548938,0.67351083,0.40848021,0.24987979,0.53882433,0.30649912,0.12151432,0.53706939,,,,,,,,,,,,,,,,
1.8,0.36333333,0.41663153,0.66301623,0.2618063,0.46938148,0.8002995,0.26246516,0.56220396,0.37791737,0.2238312,0.61408412,0.28041348,0.12918202,0.44653699,,,,,,,,,,,,,,,,
1.9,0.34421053,0.36911332,0.59295293,0.22977312,0.39841465,0.68486306,0.22299858,0.47772919,0.36693948,0.19117142,0.63404611,0.25048397,0.13471615,0.32977062,,,,,,,,,,,,,,,,
2,0.327,0.32262992,0.51345241,0.20272583,0.33461657,0.49824914,0.19263444,0.38333109,0.39406507,0.15997106,0.63085982,0.22373029,0.13783356,0.27100818,,,,,,,,,,,,,,,,
2.2,0.29727273,0.24362031,0.36035281,0.16470208,0.25160008,0.3526578,0.1662104,0.27463726,0.36455034,0.12840735,0.40277553,0.15664988,0.15872375,0.17999071,,,,,,,,,,,,,,,,
2.4,0.2725,0.21475622,0.30060446,0.15342498,0.2613865,0.27370363,0.16293624,0.2011357,0.33538148,0.11575309,0.31637376,0.16275674,0.16425226,0.15388282,,,,,,,,,,,,,,,,
2.5,0.2616,0.20318793,0.2848162,0.14495431,0.2665328,0.24731804,0.14958104,0.2019603,0.3200031,0.10166469,0.2848799,0.15145713,0.16309164,0.14539067,,,,,,,,,,,,,,,,
2.6,0.25153846,0.1977514,0.27927154,0.14002721,0.28734128,0.23850908,0.13349257,0.2079444,0.30276326,0.09379659,0.26128739,0.15037405,0.16062949,0.14137587,,,,,,,,,,,,,,,,
2.8,0.23357143,0.18041545,0.26004165,0.12517123,0.27670256,0.18988837,0.11236017,0.24589336,0.26772302,0.06854949,0.21071745,0.13875403,0.15599212,0.13757392,,,,,,,,,,,,,,,,
